NORAD_CAT_ID,OBJECT_NAME,OBJECT_TYPE,EPOCH,MEAN_MOTION,ECCENTRICITY,INCLINATION,RA_OF_ASC_NODE,ARG_OF_PERICENTER,MEAN_ANOMALY,BSTAR,MEAN_MOTION_DOT,MEAN_MOTION_DDOT,TLE_LINE0,TLE_LINE1,TLE_LINE2,SEMIMAJOR_AXIS,PERIOD,APOGEE,PERIGEE,DECAYED
54797.0,STARLINK-5435,PAYLOAD,2024-08-17 23:14:56,15.08839641,0.0001271,53.2169,77.0484,102.2903,257.8232,0.00035114,5.305e-05,0.0,0 STARLINK-5435,1 54797U 22175AR  24230.96871381  .00005305  00000-0  35114-3 0  9993,2 54797  53.2169  77.0484 0001271 102.2903 257.8232 15.08839641 91901,6917.881,95.438,540.626,538.867,0.0
54797.0,STARLINK-5435,PAYLOAD,2024-08-18 19:54:57,15.08851982,0.0001304,53.2165,73.1835,96.1012,264.0129,0.0004243,6.473e-05,0.0,0 STARLINK-5435,1 54797U 22175AR  24231.82983015  .00006473  00000-0  42430-3 0  9993,2 54797  53.2165  73.1835 0001304  96.1012 264.0129 15.08851982 94194,6917.844,95.437,540.611,538.807,0.0
54797.0,STARLINK-5435,PAYLOAD,2024-08-19 13:24:11,15.08842505,0.0001797,53.216,69.9129,108.7123,251.4064,0.00010113,1.322e-05,0.0,0 STARLINK-5435,1 54797U 22175AR  24232.55847054  .00001322  00000-0  10113-3 0  9997,2 54797  53.2160  69.9129 0001797 108.7123 251.4064 15.08842505 92149,6917.873,95.437,540.981,538.495,0.0
54797.0,STARLINK-5435,PAYLOAD,2024-08-19 22:56:30,15.08835471,0.0001512,53.2161,68.1282,124.846,235.2675,-5.4609e-06,-3.75e-06,0.0,0 STARLINK-5435,1 54797U 22175AR  24232.95591231 -.00000375  00000-0 -54609-5 0  9993,2 54797  53.2161  68.1282 0001512 124.8460 235.2675 15.08835471 92208,6917.894,95.438,540.805,538.713,0.0
54797.0,STARLINK-5435,PAYLOAD,2024-08-20 22:47:17,15.08848896,0.0001538,53.2165,63.6681,114.0186,246.0967,0.00055124,8.498e-05,0.0,0 STARLINK-5435,1 54797U 22175AR  24233.94951145  .00008498  00000-0  55124-3 0  9990,2 54797  53.2165  63.6681 0001538 114.0186 246.0967 15.08848896 92354,6917.853,95.437,540.782,538.654,0.0
54797.0,STARLINK-5435,PAYLOAD,2024-08-21 17:51:55,15.08838823,0.000161,53.2172,60.0978,116.4285,243.6872,0.00010953,1.456e-05,0.0,0 STARLINK-5435,1 54797U 22175AR  24234.74439451  .00001456  00000-0  10953-3 0  9998,2 54797  53.2172  60.0978 0001610 116.4285 243.6872 15.08838823 92479,6917.884,95.438,540.863,538.635,0.0
